CCSDS_OEM_VERS = 1.0
CREATION_DATE  = 2017-05-11T11:29:40
ORIGINATOR     = GMAT USER

META_START
OBJECT_NAME          = MOPSSat_alt_35785_km_RAAN_180_001
OBJECT_ID            = SatId
CENTER_NAME          = Earth
REF_FRAME            = EME2000
TIME_SYSTEM          = UTC
START_TIME           = 2017-01-01T00:00:00.000
USEABLE_START_TIME   = 2017-01-01T00:00:00.000
USEABLE_STOP_TIME    = 2017-01-02T00:00:00.000
STOP_TIME            = 2017-01-02T00:00:00.000
INTERPOLATION        = Lagrange
INTERPOLATION_DEGREE = 7 
META_STOP


                                                                                   

2017-01-01T20:10:00.000  -2.317576670872414e+04   3.522356146374461e+04   2.443431954656925e-01  -2.568547214952162e+00  -1.690086070579662e+00   1.445058157170870e-04
2017-01-01T20:10:10.000  -2.320144601625358e+04   3.520665123970660e+04   2.457883704266864e-01  -2.567314163492487e+00  -1.691958653278274e+00   1.445291690583310e-04
2017-01-01T20:10:20.000  -2.322711298646685e+04   3.518972229432202e+04   2.472337785305165e-01  -2.566079746739012e+00  -1.693830336319118e+00   1.445524439911967e-04
2017-01-01T20:10:30.000  -2.325276760591630e+04   3.517277463645877e+04   2.486794190043444e-01  -2.564843965338320e+00  -1.695701118721489e+00   1.445756404867973e-04
2017-01-01T20:10:40.000  -2.327840986122604e+04   3.515580827495160e+04   2.501252910787158e-01  -2.563606819934574e+00  -1.697570999509909e+00   1.445987585163518e-04
2017-01-01T20:10:50.000  -2.330403973849221e+04   3.513882321899851e+04   2.515713939537585e-01  -2.562368311198425e+00  -1.699439977670403e+00   1.446217980506290e-04
2017-01-01T20:11:00.000  -2.332965722388280e+04   3.512181947776443e+04   2.530177268329833e-01  -2.561128439798120e+00  -1.701308052194235e+00   1.446447590605053e-04
2017-01-01T20:11:10.000  -2.335526230348269e+04   3.510479706048341e+04   2.544642889145635e-01  -2.559887206406934e+00  -1.703175222066607e+00   1.446676415168175e-04
2017-01-01T20:11:20.000  -2.338085496370392e+04   3.508775597618875e+04   2.559110794144056e-01  -2.558644611683518e+00  -1.705041486296578e+00   1.446904453907539e-04
2017-01-01T20:11:30.000  -2.340643519094691e+04   3.507069623393542e+04   2.573580975471164e-01  -2.557400656288088e+00  -1.706906843892363e+00   1.447131706535277e-04
2017-01-01T20:11:40.000  -2.343200297167865e+04   3.505361784274863e+04   2.588053425303900e-01  -2.556155340878708e+00  -1.708771293867028e+00   1.447358172764545e-04
2017-01-01T20:11:50.000  -2.345755829240167e+04   3.503652081164288e+04   2.602528135833216e-01  -2.554908666112645e+00  -1.710634835236231e+00   1.447583852309044e-04
2017-01-01T20:12:00.000  -2.348310113964049e+04   3.501940514963233e+04   2.617005099255852e-01  -2.553660632647151e+00  -1.712497467017233e+00   1.447808744883098e-04
2017-01-01T20:12:10.000  -2.350863149991098e+04   3.500227086575134e+04   2.631484307757008e-01  -2.552411241140950e+00  -1.714359188226666e+00   1.448032850201320e-04
2017-01-01T20:12:20.000  -2.353414935970544e+04   3.498511796906305e+04   2.645965753502382e-01  -2.551160492254859e+00  -1.716219997879442e+00   1.448256167978603e-04
2017-01-01T20:12:30.000  -2.355965470546332e+04   3.496794646868076e+04   2.660449428620970e-01  -2.549908386653362e+00  -1.718079894986621e+00   1.448478697929754e-04
2017-01-01T20:12:40.000  -2.358514752364850e+04   3.495075637371527e+04   2.674935325249126e-01  -2.548654925000756e+00  -1.719938878561039e+00   1.448700439770205e-04
2017-01-01T20:12:50.000  -2.361062780041450e+04   3.493354769350325e+04   2.689423435339488e-01  -2.547400107977808e+00  -1.721796947592908e+00   1.448921393213012e-04
2017-01-01T20:13:00.000  -2.363609552201039e+04   3.491632043733091e+04   2.703913750892487e-01  -2.546143936261605e+00  -1.723654101079401e+00   1.449141557972482e-04
2017-01-01T20:13:10.000  -2.366155067462973e+04   3.489907461453649e+04   2.718406263870287e-01  -2.544886410533036e+00  -1.725510338013644e+00   1.449360933762807e-04
2017-01-01T20:13:20.000  -2.368699324499619e+04   3.488181023411385e+04   2.732900966530131e-01  -2.543627531447866e+00  -1.727365657427423e+00   1.449579520303287e-04
2017-01-01T20:13:30.000  -2.371242321977935e+04   3.486452730510777e+04   2.747397851091865e-01  -2.542367299665581e+00  -1.729220058348578e+00   1.449797317313119e-04
2017-01-01T20:13:40.000  -2.373784058572727e+04   3.484722583652461e+04   2.761896909813238e-01  -2.541105715842868e+00  -1.731073539810670e+00   1.450014324512612e-04
2017-01-01T20:13:50.000  -2.376324532933559e+04   3.482990583755395e+04   2.776398134802430e-01  -2.539842780649769e+00  -1.732926100828854e+00   1.450230541620117e-04
2017-01-01T20:14:00.000  -2.378863743709370e+04   3.481256731740478e+04   2.790901518157158e-01  -2.538578494757746e+00  -1.734777740417830e+00   1.450445968354378e-04
2017-01-01T20:14:10.000  -2.381401689548408e+04   3.479521028530450e+04   2.805407051964801e-01  -2.537312858839599e+00  -1.736628457591794e+00   1.450660604434428e-04
2017-01-01T20:14:20.000  -2.383938369073992e+04   3.477783475066824e+04   2.819914728162644e-01  -2.536045873581823e+00  -1.738478251346764e+00   1.450874449577788e-04
2017-01-01T20:14:30.000  -2.386473780917227e+04   3.476044072287177e+04   2.834424538726017e-01  -2.534777539668036e+00  -1.740327120684432e+00   1.451087503502995e-04
2017-01-01T20:14:40.000  -2.389007923704094e+04   3.474302821134059e+04   2.848936475594224e-01  -2.533507857785489e+00  -1.742175064602758e+00   1.451299765928581e-04
2017-01-01T20:14:50.000  -2.391540796112647e+04   3.472559722515717e+04   2.863450530998015e-01  -2.532236828596417e+00  -1.744022082137672e+00   1.451511236577744e-04
2017-01-01T20:15:00.000  -2.394072396815807e+04   3.470814777345354e+04   2.877966697132142e-01  -2.530964452766672e+00  -1.745868172321362e+00   1.451721915173667e-04
2017-01-01T20:15:10.000  -2.396602724494318e+04   3.469067986532291e+04   2.892484966229361e-01  -2.529690730959272e+00  -1.747713334191718e+00   1.451931801440585e-04
2017-01-01T20:15:20.000  -2.399131777803802e+04   3.467319351004328e+04   2.907005330372690e-01  -2.528415663850710e+00  -1.749557566768316e+00   1.452140895101032e-04
2017-01-01T20:15:30.000  -2.401659555399272e+04   3.465568871691210e+04   2.921527781634723e-01  -2.527139252118902e+00  -1.751400869070281e+00   1.452349195877909e-04
2017-01-01T20:15:40.000  -2.404186055935060e+04   3.463816549524531e+04   2.936052312077742e-01  -2.525861496443108e+00  -1.753243240116246e+00   1.452556703494447e-04
2017-01-01T20:15:50.000  -2.406711278040693e+04   3.462062385454820e+04   2.950578913613790e-01  -2.524582397516396e+00  -1.755084678906755e+00   1.452763417672321e-04
2017-01-01T20:16:00.000  -2.409235220353458e+04   3.460306380428615e+04   2.965107578193054e-01  -2.523301956028927e+00  -1.756925184448011e+00   1.452969338134225e-04
2017-01-01T20:16:10.000  -2.411757881505308e+04   3.458548535397640e+04   2.979638297728276e-01  -2.522020172674641e+00  -1.758764755742325e+00   1.453174464602831e-04
2017-01-01T20:16:20.000  -2.414279260180749e+04   3.456788851278472e+04   2.994171064428162e-01  -2.520737048121850e+00  -1.760603391830331e+00   1.453378796805414e-04
2017-01-01T20:16:30.000  -2.416799355058792e+04   3.455027328992951e+04   3.008705870463159e-01  -2.519452583042706e+00  -1.762441091748661e+00   1.453582334469223e-04
2017-01-01T20:16:40.000  -2.419318164827958e+04   3.453263969457773e+04   3.023242708051718e-01  -2.518166778105610e+00  -1.764277854540876e+00   1.453785077322665e-04
2017-01-01T20:16:50.000  -2.421835688145913e+04   3.451498773612437e+04   3.037781569228414e-01  -2.516879633995586e+00  -1.766113679228035e+00   1.453987025092122e-04
2017-01-01T20:17:00.000  -2.424351923672795e+04   3.449731742396206e+04   3.052322446035269e-01  -2.515591151397493e+00  -1.767948564833008e+00   1.454188177504565e-04
2017-01-01T20:17:10.000  -2.426866870063772e+04   3.447962876753247e+04   3.066865330479057e-01  -2.514301330999762e+00  -1.769782510375037e+00   1.454388534286993e-04
2017-01-01T20:17:20.000  -2.429380525971156e+04   3.446192177631347e+04   3.081410214542791e-01  -2.513010173493471e+00  -1.771615514871276e+00   1.454588095166488e-04
2017-01-01T20:17:30.000  -2.431892890046823e+04   3.444419645980059e+04   3.095957090200329e-01  -2.511717679570969e+00  -1.773447577338567e+00   1.454786859870532e-04
2017-01-01T20:17:40.000  -2.434403960943129e+04   3.442645282750041e+04   3.110505949421607e-01  -2.510423849925434e+00  -1.775278696794103e+00   1.454984828127023e-04
2017-01-01T20:17:50.000  -2.436913737321940e+04   3.440869088886807e+04   3.125056784224614e-01  -2.509128685246276e+00  -1.777108872262004e+00   1.455181999665167e-04
2017-01-01T20:18:00.000  -2.439422217848587e+04   3.439091065334863e+04   3.139609586640775e-01  -2.507832186222176e+00  -1.778938102768928e+00   1.455378374214816e-04
2017-01-01T20:18:10.000  -2.441929401191882e+04   3.437311213037720e+04   3.154164348714966e-01  -2.506534353541094e+00  -1.780766387344062e+00   1.455573951506535e-04
2017-01-01T20:18:20.000  -2.444435286030042e+04   3.435529532933592e+04   3.168721062540267e-01  -2.505235187887118e+00  -1.782593725023456e+00   1.455768731271879e-04
2017-01-01T20:18:30.000  -2.446939871041767e+04   3.433746025961802e+04   3.183279720205879e-01  -2.503934689945154e+00  -1.784420114843509e+00   1.455962713242878e-04
2017-01-01T20:18:40.000  -2.449443154905340e+04   3.431960693063445e+04   3.197840313791854e-01  -2.502632860401396e+00  -1.786245555840319e+00   1.456155897151909e-04
2017-01-01T20:18:50.000  -2.451945136296060e+04   3.430173535183048e+04   3.212402835354718e-01  -2.501329699944544e+00  -1.788070047047805e+00   1.456348282731612e-04
2017-01-01T20:19:00.000  -2.454445813884334e+04   3.428384553270139e+04   3.226967276915698e-01  -2.500025209266940e+00  -1.789893587496324e+00   1.456539869714640e-04
